GLOBALSTAR M084         
1 38040U 11080A   24182.87967338 -.00000097  00000+0  36447-4 0  9997
2 38040  52.0023  37.9815 0000949  61.0042 312.0493 12.62263859578306
GLOBALSTAR M080         
1 38041U 11080B   24182.95985106 -.00000088  00000+0  86874-4 0  9999
2 38041  52.0075  39.2202 0000786  47.0518  90.9434 12.62262399578439
GLOBALSTAR M082         
1 38042U 11080C   24182.89619729 -.00000090  00000+0  79544-4 0  9997
2 38042  52.0092 354.8242 0001346 113.6784  34.3205 12.62270751579134
GLOBALSTAR M092         
1 38043U 11080D   24182.93409531 -.00000109  00000+0 -28678-4 0  9995
2 38043  52.0090  85.0647 0000787  55.6480  25.3231 12.62263044577595
GLOBALSTAR M090         
1 38044U 11080E   24182.91656712 -.00000085  00000+0  10365-3 0  9994
2 38044  51.9903 349.0236 0001020 111.4612   8.9992 12.62264467579259
GLOBALSTAR M086         
1 38045U 11080F   24182.87048618 -.00000091  00000+0  73811-4 0  9993
2 38045  51.9915 349.6863 0000308 190.7147 321.0718 12.62263758579196
GLOBALSTAR M097         
1 39072U 13005A   24183.18084905 -.00000092  00000+0  63418-4 0  9990
2 39072  52.0044 262.9372 0000633 158.6919 201.3974 12.62263998526568
GLOBALSTAR M093         
1 39073U 13005B   24182.91657918 -.00000091  00000+0  70892-4 0  9994
2 39073  51.9803 257.6048 0000693 172.0511 188.0366 12.62275528526406
